[{"OBJECT_NAME":"STARLINK-34939","OBJECT_ID":"2025-175K","EPOCH":"2026-03-09T15:39:15.862752","MEAN_MOTION":15.05646606,"ECCENTRICITY":0.0003306,"INCLINATION":97.5994,"RA_OF_ASC_NODE":302.6029,"ARG_OF_PERICENTER":84.3032,"MEAN_ANOMALY":275.8572,"EPHEMERIS_TYPE":0,"CLASSIFICATION_TYPE":"U","NORAD_CAT_ID":65183,"ELEMENT_SET_NO":999,"REV_AT_EPOCH":3260,"BSTAR":3.9285e-5,"MEAN_MOTION_DOT":5.06e-6,"MEAN_MOTION_DDOT":0},{"OBJECT_NAME":"PSLV DEB","OBJECT_ID":"2001-049CS","EPOCH":"2026-03-09T17:28:51.612960","MEAN_MOTION":14.96014952,"ECCENTRICITY":0.00345383,"INCLINATION":98.0485,"RA_OF_ASC_NODE":147.0031,"ARG_OF_PERICENTER":251.2293,"MEAN_ANOMALY":231.4093,"EPHEMERIS_TYPE":0,"CLASSIFICATION_TYPE":"U","NORAD_CAT_ID":27146,"ELEMENT_SET_NO":999,"REV_AT_EPOCH":30162,"BSTAR":0.00055338741,"MEAN_MOTION_DOT":6.222e-5,"MEAN_MOTION_DDOT":0}]
